[{"OBJECT_NAME":"OBJECT J","OBJECT_ID":"2024-092J","EPOCH":"2026-03-09T22:08:58.299072","MEAN_MOTION":14.31802287,"ECCENTRICITY":0.00130036,"INCLINATION":98.6556,"RA_OF_ASC_NODE":188.1438,"ARG_OF_PERICENTER":138.752,"MEAN_ANOMALY":221.4648,"EPHEMERIS_TYPE":0,"CLASSIFICATION_TYPE":"U","NORAD_CAT_ID":59781,"ELEMENT_SET_NO":999,"REV_AT_EPOCH":9469,"BSTAR":0.00013473254,"MEAN_MOTION_DOT":3.16e-6,"MEAN_MOTION_DDOT":0},{"OBJECT_NAME":"SL-3 R\/B","OBJECT_ID":"1981-075B","EPOCH":"2026-03-09T23:39:21.121632","MEAN_MOTION":14.16412325,"ECCENTRICITY":0.00659416,"INCLINATION":81.2293,"RA_OF_ASC_NODE":11.646,"ARG_OF_PERICENTER":243.8616,"MEAN_ANOMALY":192.8582,"EPHEMERIS_TYPE":0,"CLASSIFICATION_TYPE":"U","NORAD_CAT_ID":12646,"ELEMENT_SET_NO":999,"REV_AT_EPOCH":30266,"BSTAR":5.2523282e-5,"MEAN_MOTION_DOT":1.19e-6,"MEAN_MOTION_DDOT":0}]
